[
  {
    "name": "STARLINK-5167",
    "noradId": "54058",
    "line1": "1 54058U 22136H   26167.51865649  .00001179  00000+0  92202-4 0  9998",
    "line2": "2 54058  53.1602 260.3753 0001219  85.6108 274.5023 15.08832037201764"
  },
  {
    "name": "STARLINK-5173",
    "noradId": "54059",
    "line1": "1 54059U 22136J   26167.52234014 -.00004380  00000+0 -25728-3 0  9993",
    "line2": "2 54059  53.1609 260.3987 0001252  93.1274 266.9861 15.08838253201767"
  },
  {
    "name": "STARLINK-5169",
    "noradId": "54060",
    "line1": "1 54060U 22136K   26167.48089721 -.00000444  00000+0 -98214-5 0  9992",
    "line2": "2 54060  53.1594 230.1925 0001100  73.4599 286.6513 15.08827124202187"
  },
  {
    "name": "STARLINK-5209",
    "noradId": "54061",
    "line1": "1 54061U 22136L   26167.47951285 -.00000749  00000+0 -28974-4 0  9998",
    "line2": "2 54061  53.1588 225.1535 0001272  87.3570 272.7567 15.08824471202250"
  },
  {
    "name": "STARLINK-5170",
    "noradId": "54062",
    "line1": "1 54062U 22136M   26167.58120894  .00001597  00000+0  11840-3 0  9998",
    "line2": "2 54062  53.1601 260.0579 0001085  70.1394 289.9714 15.08839139201776"
  },
  {
    "name": "STARLINK-5172",
    "noradId": "54064",
    "line1": "1 54064U 22136P   26167.59311697  .00138727  00000+0  82930-2 0  9997",
    "line2": "2 54064  53.1604 215.1995 0001480  76.0493 284.0663 15.10018672202402"
  },
  {
    "name": "STARLINK-5187",
    "noradId": "54065",
    "line1": "1 54065U 22136Q   26167.57015590  .00000655  00000+0  59253-4 0  9991",
    "line2": "2 54065  53.1619 259.9886 0001184  92.9627 267.1500 15.08836574201778"
  },
  {
    "name": "STARLINK-5151",
    "noradId": "54066",
    "line1": "1 54066U 22136R   26167.52105392  .00000491  00000+0  49900-4 0  9993",
    "line2": "2 54066  53.2092 260.4817 0001229  83.5949 276.5183 15.08015757201761"
  },
  {
    "name": "STARLINK-5174",
    "noradId": "54067",
    "line1": "1 54067U 22136S   26167.56278925  .00000096  00000+0  24096-4 0  9991",
    "line2": "2 54067  53.1610 259.9440 0001174  96.2985 263.8140 15.08831110201774"
  },
  {
    "name": "STARLINK-5222",
    "noradId": "54068",
    "line1": "1 54068U 22136T   26167.56647326  .00000333  00000+0  39010-4 0  9993",
    "line2": "2 54068  53.1617 259.9653 0001168  91.8169 268.2957 15.08833919201770"
  },
  {
    "name": "STARLINK-5181",
    "noradId": "54070",
    "line1": "1 54070U 22136V   26167.55541561  .00000106  00000+0  24778-4 0  9992",
    "line2": "2 54070  53.1604 259.8973 0001022  93.0261 267.0848 15.08831697201776"
  },
  {
    "name": "STARLINK-5168",
    "noradId": "54071",
    "line1": "1 54071U 22136W   26167.55173181  .00000153  00000+0  27694-4 0  9994",
    "line2": "2 54071  53.1612 259.8755 0001240  90.9165 269.1969 15.08833160201779"
  },
  {
    "name": "STARLINK-5146",
    "noradId": "54073",
    "line1": "1 54073U 22136Y   26167.55035644 -.00000129  00000+0  99728-5 0  9999",
    "line2": "2 54073  53.1601 254.8849 0001102  88.2014 271.9103 15.08829056201846"
  },
  {
    "name": "STARLINK-5192",
    "noradId": "54074",
    "line1": "1 54074U 22136Z   26167.54804772 -.00000640  00000+0 -22121-4 0  9996",
    "line2": "2 54074  53.1608 259.8504 0001281  90.0064 270.1074 15.08832063201773"
  },
  {
    "name": "STARLINK-5212",
    "noradId": "54075",
    "line1": "1 54075U 22136AA  26167.58334491  .00048182  00000+0  26491-2 0  9990",
    "line2": "2 54075  53.1590 254.6518 0002143  71.6325 149.1841 15.13635472  5809"
  },
  {
    "name": "STARLINK-5201",
    "noradId": "54076",
    "line1": "1 54076U 22136AB  26167.53803454  .00000529  00000+0  51360-4 0  9994",
    "line2": "2 54076  53.1605 260.4830 0001309  89.1807 270.9334 15.08833116201763"
  },
  {
    "name": "STARLINK-5171",
    "noradId": "54077",
    "line1": "1 54077U 22136AC  26167.36190747  .00000458  00000+0  46851-4 0  9990",
    "line2": "2 54077  53.1587 236.7072 0001228  88.1775 271.9357 15.08829461202080"
  },
  {
    "name": "STARLINK-5175",
    "noradId": "54079",
    "line1": "1 54079U 22136AE  26167.53800354  .00000262  00000+0  34577-4 0  9998",
    "line2": "2 54079  53.1601 250.5025 0001181  78.6713 281.4411 15.08829391201904"
  },
  {
    "name": "STARLINK-5160",
    "noradId": "54080",
    "line1": "1 54080U 22136AF  26167.55517491  .01270872  11859-4  55312-3 0  9994",
    "line2": "2 54080  53.2045 227.7905 0004398 343.5259  16.5638 16.21858227202224"
  },
  {
    "name": "STARLINK-5210",
    "noradId": "54082",
    "line1": "1 54082U 22136AH  26167.53432170 -.00000004  00000+0  17875-4 0  9996",
    "line2": "2 54082  53.1593 250.4797 0002122  77.4244 282.6985 15.08840093201906"
  },
  {
    "name": "STARLINK-5178",
    "noradId": "54083",
    "line1": "1 54083U 22136AJ  26167.52326017  .00000637  00000+0  58149-4 0  9998",
    "line2": "2 54083  53.1603 250.4133 0001167  78.4195 281.6927 15.08827603201904"
  },
  {
    "name": "STARLINK-5183",
    "noradId": "54084",
    "line1": "1 54084U 22136AK  26167.53063343 -.00000279  00000+0  55278-6 0  9995",
    "line2": "2 54084  53.1595 250.4564 0001218  74.2236 285.8890 15.08833192201905"
  },
  {
    "name": "STARLINK-5166",
    "noradId": "54085",
    "line1": "1 54085U 22136AL  26167.52054429  .00001181  00000+0  92294-4 0  9999",
    "line2": "2 54085  53.1604 250.3957 0001392  71.7329 288.3814 15.08827572201909"
  },
  {
    "name": "STARLINK-5211",
    "noradId": "54086",
    "line1": "1 54086U 22136AM  26167.45656696 -.00000508  00000+0 -13828-4 0  9996",
    "line2": "2 54086  53.1595 235.7497 0001188  86.5036 273.6091 15.08831880202101"
  },
  {
    "name": "STARLINK-5184",
    "noradId": "54087",
    "line1": "1 54087U 22136AN  26167.54897435  .00001521  00000+0  11365-3 0  9992",
    "line2": "2 54087  53.1599 249.8668 0001348  74.6252 285.4889 15.08823990201915"
  },
  {
    "name": "STARLINK-5153",
    "noradId": "54088",
    "line1": "1 54088U 22136AP  26167.52692774  .00002520  00000+0  17629-3 0  9999",
    "line2": "2 54088  53.1600 250.4421 0001325  98.5544 261.5598 15.08851810201901"
  },
  {
    "name": "STARLINK-5143",
    "noradId": "54089",
    "line1": "1 54089U 22136AQ  26167.50483637  .00000426  00000+0  44829-4 0  9990",
    "line2": "2 54089  53.1597 250.3032 0001168  84.1651 275.9474 15.08834487201902"
  },
  {
    "name": "STARLINK-5177",
    "noradId": "54090",
    "line1": "1 54090U 22136AR  26167.50853543  .00001504  00000+0  11259-3 0  9997",
    "line2": "2 54090  53.1596 250.3224 0001095  89.9533 270.1584 15.08828870201905"
  },
  {
    "name": "STARLINK-5221",
    "noradId": "54091",
    "line1": "1 54091U 22136AS  26167.54528623  .00000215  00000+0  31577-4 0  9994",
    "line2": "2 54091  53.1601 249.8450 0001155  90.6051 269.5073 15.08833654201910"
  },
  {
    "name": "STARLINK-5190",
    "noradId": "54092",
    "line1": "1 54092U 22136AT  26166.96691620  .00105824  00000+0  47581-3 0  9991",
    "line2": "2 54092  53.1727  46.3604 0001242 145.8146 214.2958 15.83317826204717"
  }
]