OBJECT_NAME,OBJECT_ID,EPOCH,MEAN_MOTION,ECCENTRICITY,INCLINATION,RA_OF_ASC_NODE,ARG_OF_PERICENTER,MEAN_ANOMALY,EPHEMERIS_TYPE,CLASSIFICATION_TYPE,NORAD_CAT_ID,ELEMENT_SET_NO,REV_AT_EPOCH,BSTAR,MEAN_MOTION_DOT,MEAN_MOTION_DDOT
STARLINK-5167,2022-136H,2026-06-16T12:26:51.920736,15.08832037,.00012194,53.1602,260.3753,85.6108,274.5023,0,U,54058,999,20176,.92201617E-4,.1179E-4,0
STARLINK-5173,2022-136J,2026-06-16T12:32:10.188096,15.08838253,.00012528,53.1609,260.3987,93.1274,266.9861,0,U,54059,999,20176,-.25728139E-3,-.438E-4,0
STARLINK-5169,2022-136K,2026-06-16T11:32:29.518944,15.08827124,.00011005,53.1594,230.1925,73.4599,286.6513,0,U,54060,999,20218,-.982136E-5,-.444E-5,0
STARLINK-5209,2022-136L,2026-06-16T11:30:29.910240,15.08824471,.00012729,53.1588,225.1535,87.3570,272.7567,0,U,54061,999,20225,-.28974166E-4,-.749E-5,0
STARLINK-5170,2022-136M,2026-06-16T13:56:56.452416,15.08839139,.00010858,53.1601,260.0579,70.1394,289.9714,0,U,54062,999,20177,.11840225E-3,.1597E-4,0
STARLINK-5172,2022-136P,2026-06-16T14:14:05.306208,15.10018672,.00014806,53.1604,215.1995,76.0493,284.0663,0,U,54064,999,20240,.82929753E-2,.138727E-2,0
STARLINK-5187,2022-136Q,2026-06-16T13:41:01.469760,15.08836574,.00011842,53.1619,259.9886,92.9627,267.1500,0,U,54065,999,20177,.59253285E-4,.655E-5,0
STARLINK-5151,2022-136R,2026-06-16T12:30:19.058688,15.08015757,.00012296,53.2092,260.4817,83.5949,276.5183,0,U,54066,999,20176,.49899908E-4,.491E-5,0
STARLINK-5174,2022-136S,2026-06-16T13:30:24.991200,15.08831110,.00011742,53.1610,259.9440,96.2985,263.8140,0,U,54067,999,20177,.24096476E-4,.96E-6,0
STARLINK-5222,2022-136T,2026-06-16T13:35:43.289664,15.08833919,.00011684,53.1617,259.9653,91.8169,268.2957,0,U,54068,999,20177,.39009755E-4,.333E-5,0
STARLINK-5181,2022-136V,2026-06-16T13:19:47.908704,15.08831697,.00010222,53.1604,259.8973,93.0261,267.0848,0,U,54070,999,20177,.24778397E-4,.106E-5,0
STARLINK-5168,2022-136W,2026-06-16T13:14:29.628384,15.08833160,.00012409,53.1612,259.8755,90.9165,269.1969,0,U,54071,999,20177,.27694072E-4,.153E-5,0
STARLINK-5146,2022-136Y,2026-06-16T13:12:30.796416,15.08829056,.00011028,53.1601,254.8849,88.2014,271.9103,0,U,54073,999,20184,.9972771E-5,-.129E-5,0
STARLINK-5192,2022-136Z,2026-06-16T13:09:11.323008,15.08832063,.00012811,53.1608,259.8504,90.0064,270.1074,0,U,54074,999,20177,-.22121002E-4,-.64E-5,0
STARLINK-5212,2022-136AA,2026-06-16T14:00:01.000224,15.13635472,.00021431,53.1590,254.6518,71.6325,149.1841,0,U,54075,999,580,.26490848E-2,.48182E-3,0
STARLINK-5201,2022-136AB,2026-06-16T12:54:46.184256,15.08833116,.00013095,53.1605,260.4830,89.1807,270.9334,0,U,54076,999,20176,.51359983E-4,.529E-5,0
STARLINK-5171,2022-136AC,2026-06-16T08:41:08.805408,15.08829461,.00012283,53.1587,236.7072,88.1775,271.9357,0,U,54077,999,20208,.46850535E-4,.458E-5,0
STARLINK-5175,2022-136AE,2026-06-16T12:54:43.505856,15.08829391,.00011817,53.1601,250.5025,78.6713,281.4411,0,U,54079,999,20190,.34577052E-4,.262E-5,0
STARLINK-5160,2022-136AF,2026-06-16T13:19:27.112224,16.21858227,.00043981,53.2045,227.7905,343.5259,16.5638,0,U,54080,999,20222,.55312065E-3,.1270872E-1,.11859452E-4
STARLINK-5210,2022-136AH,2026-06-16T12:49:25.394880,15.08840093,.0002122,53.1593,250.4797,77.4244,282.6985,0,U,54082,999,20190,.17874782E-4,-.4E-7,0
STARLINK-5178,2022-136AJ,2026-06-16T12:33:29.678688,15.08827603,.00011675,53.1603,250.4133,78.4195,281.6927,0,U,54083,999,20190,.58148745E-4,.637E-5,0
STARLINK-5183,2022-136AK,2026-06-16T12:44:06.728352,15.08833192,.00012181,53.1595,250.4564,74.2236,285.8890,0,U,54084,999,20190,.552781E-6,-.279E-5,0
STARLINK-5166,2022-136AL,2026-06-16T12:29:35.026656,15.08827572,.00013923,53.1604,250.3957,71.7329,288.3814,0,U,54085,999,20190,.92293743E-4,.1181E-4,0
STARLINK-5211,2022-136AM,2026-06-16T10:57:27.385344,15.08831880,.00011888,53.1595,235.7497,86.5036,273.6091,0,U,54086,999,20210,-.138284E-4,-.508E-5,0
STARLINK-5184,2022-136AN,2026-06-16T13:10:31.383840,15.08823990,.00013482,53.1599,249.8668,74.6252,285.4889,0,U,54087,999,20191,.11365114E-3,.1521E-4,0
STARLINK-5153,2022-136AP,2026-06-16T12:38:46.556736,15.08851810,.00013253,53.1600,250.4421,98.5544,261.5598,0,U,54088,999,20190,.17628594E-3,.252E-4,0
STARLINK-5143,2022-136AQ,2026-06-16T12:06:57.862368,15.08834487,.00011682,53.1597,250.3032,84.1651,275.9474,0,U,54089,999,20190,.44828645E-4,.426E-5,0
STARLINK-5177,2022-136AR,2026-06-16T12:12:17.461152,15.08828870,.00010955,53.1596,250.3224,89.9533,270.1584,0,U,54090,999,20190,.11258926E-3,.1504E-4,0
STARLINK-5221,2022-136AS,2026-06-16T13:05:12.730272,15.08833654,.00011552,53.1601,249.8450,90.6051,269.5073,0,U,54091,999,20191,.31576928E-4,.215E-5,0
STARLINK-5190,2022-136AT,2026-06-15T23:12:21.559680,15.83317826,.0001242,53.1727,46.3604,145.8146,214.2958,0,U,54092,999,20471,.47581328E-3,.105824E-2,0
